[{"OBJECT_NAME":"GONETS-M 12","OBJECT_ID":"2015-020B","EPOCH":"2026-03-09T23:17:47.294592","MEAN_MOTION":12.42888862,"ECCENTRICITY":0.00147005,"INCLINATION":82.484,"RA_OF_ASC_NODE":93.9182,"ARG_OF_PERICENTER":198.7155,"MEAN_ANOMALY":161.3386,"EPHEMERIS_TYPE":0,"CLASSIFICATION_TYPE":"U","NORAD_CAT_ID":40553,"ELEMENT_SET_NO":999,"REV_AT_EPOCH":49640,"BSTAR":0.00092565074,"MEAN_MOTION_DOT":1.38e-6,"MEAN_MOTION_DDOT":0},{"OBJECT_NAME":"SL-14 R\/B","OBJECT_ID":"1988-046B","EPOCH":"2026-03-09T20:13:31.793376","MEAN_MOTION":12.41405689,"ECCENTRICITY":0.00211114,"INCLINATION":73.5985,"RA_OF_ASC_NODE":219.7336,"ARG_OF_PERICENTER":321.5394,"MEAN_ANOMALY":145.5136,"EPHEMERIS_TYPE":0,"CLASSIFICATION_TYPE":"U","NORAD_CAT_ID":19196,"ELEMENT_SET_NO":999,"REV_AT_EPOCH":71199,"BSTAR":8.2459168e-5,"MEAN_MOTION_DOT":-6.0e-8,"MEAN_MOTION_DDOT":0}]
